CCSDS_OMM_VERS = 2.0
CREATION_DATE  = 
ORIGINATOR     = 

OBJECT_NAME    = SL-3 R/B
OBJECT_ID      = 1982-079B
CENTER_NAME    = EARTH
REF_FRAME      = TEME
TIME_SYSTEM    = UTC
MEAN_ELEMENT_THEORY = SGP/SGP4

EPOCH          = 2026-02-24T19:17:27.173472
MEAN_MOTION    = 15.24577392
ECCENTRICITY   = .0024571
INCLINATION    = 81.1462
RA_OF_ASC_NODE = 208.2888
ARG_OF_PERICENTER = 208.4592
MEAN_ANOMALY   = 151.5302

EPHEMERIS_TYPE = 0
CLASSIFICATION_TYPE = U
NORAD_CAT_ID   = 13403
ELEMENT_SET_NO = 999
REV_AT_EPOCH   = 37573
BSTAR          = .25211E-3
MEAN_MOTION_DOT = .629E-4
MEAN_MOTION_DDOT = 0

CCSDS_OMM_VERS = 2.0
CREATION_DATE  = 
ORIGINATOR     = 

OBJECT_NAME    = SL-14 R/B
OBJECT_ID      = 1982-092B
CENTER_NAME    = EARTH
REF_FRAME      = TEME
TIME_SYSTEM    = UTC
MEAN_ELEMENT_THEORY = SGP/SGP4

EPOCH          = 2026-02-24T09:15:13.855392
MEAN_MOTION    = 14.86651012
ECCENTRICITY   = .00199612
INCLINATION    = 82.5712
RA_OF_ASC_NODE = 153.8404
ARG_OF_PERICENTER = 349.7380
MEAN_ANOMALY   = 79.1784

EPHEMERIS_TYPE = 0
CLASSIFICATION_TYPE = U
NORAD_CAT_ID   = 13553
ELEMENT_SET_NO = 999
REV_AT_EPOCH   = 32695
BSTAR          = .53991991E-4
MEAN_MOTION_DOT = .505E-5
MEAN_MOTION_DDOT = 0

CCSDS_OMM_VERS = 2.0
CREATION_DATE  = 
ORIGINATOR     = 

OBJECT_NAME    = SL-3 R/B
OBJECT_ID      = 1983-010B
CENTER_NAME    = EARTH
REF_FRAME      = TEME
TIME_SYSTEM    = UTC
MEAN_ELEMENT_THEORY = SGP/SGP4

EPOCH          = 2026-02-24T08:43:57.046080
MEAN_MOTION    = 15.45819498
ECCENTRICITY   = .00186699
INCLINATION    = 81.1047
RA_OF_ASC_NODE = 18.5770
ARG_OF_PERICENTER = 92.9180
MEAN_ANOMALY   = 267.4202

EPHEMERIS_TYPE = 0
CLASSIFICATION_TYPE = U
NORAD_CAT_ID   = 13819
ELEMENT_SET_NO = 999
REV_AT_EPOCH   = 35588
BSTAR          = .33806943E-3
MEAN_MOTION_DOT = .16539E-3
MEAN_MOTION_DDOT = 0

CCSDS_OMM_VERS = 2.0
CREATION_DATE  = 
ORIGINATOR     = 

OBJECT_NAME    = SL-3 R/B
OBJECT_ID      = 1983-075B
CENTER_NAME    = EARTH
REF_FRAME      = TEME
TIME_SYSTEM    = UTC
MEAN_ELEMENT_THEORY = SGP/SGP4

EPOCH          = 2026-02-24T19:21:52.758432
MEAN_MOTION    = 15.38059900
ECCENTRICITY   = .0019653
INCLINATION    = 97.6143
RA_OF_ASC_NODE = 59.9011
ARG_OF_PERICENTER = 276.6904
MEAN_ANOMALY   = 83.2103

EPHEMERIS_TYPE = 0
CLASSIFICATION_TYPE = U
NORAD_CAT_ID   = 14208
ELEMENT_SET_NO = 999
REV_AT_EPOCH   = 32817
BSTAR          = .29348E-3
MEAN_MOTION_DOT = .10977E-3
MEAN_MOTION_DDOT = 0

CCSDS_OMM_VERS = 2.0
CREATION_DATE  = 
ORIGINATOR     = 

OBJECT_NAME    = COSMOS 1536
OBJECT_ID      = 1984-013A
CENTER_NAME    = EARTH
REF_FRAME      = TEME
TIME_SYSTEM    = UTC
MEAN_ELEMENT_THEORY = SGP/SGP4

EPOCH          = 2026-02-24T14:03:33.103584
MEAN_MOTION    = 15.23631805
ECCENTRICITY   = .0013314
INCLINATION    = 82.5450
RA_OF_ASC_NODE = 120.8743
ARG_OF_PERICENTER = 334.1012
MEAN_ANOMALY   = 25.9557

EPHEMERIS_TYPE = 0
CLASSIFICATION_TYPE = U
NORAD_CAT_ID   = 14699
ELEMENT_SET_NO = 999
REV_AT_EPOCH   = 27062
BSTAR          = .28446E-3
MEAN_MOTION_DOT = .6861E-4
MEAN_MOTION_DDOT = 0

CCSDS_OMM_VERS = 2.0
CREATION_DATE  = 
ORIGINATOR     = 

OBJECT_NAME    = SL-14 R/B
OBJECT_ID      = 1984-027B
CENTER_NAME    = EARTH
REF_FRAME      = TEME
TIME_SYSTEM    = UTC
MEAN_ELEMENT_THEORY = SGP/SGP4

EPOCH          = 2026-02-24T13:29:41.857728
MEAN_MOTION    = 14.85961134
ECCENTRICITY   = .0018498
INCLINATION    = 82.5381
RA_OF_ASC_NODE = 257.3283
ARG_OF_PERICENTER = 21.6918
MEAN_ANOMALY   = 338.5078

EPHEMERIS_TYPE = 0
CLASSIFICATION_TYPE = U
NORAD_CAT_ID   = 14820
ELEMENT_SET_NO = 999
REV_AT_EPOCH   = 24568
BSTAR          = .47132E-4
MEAN_MOTION_DOT = .437E-5
MEAN_MOTION_DDOT = 0

CCSDS_OMM_VERS = 2.0
CREATION_DATE  = 
ORIGINATOR     = 

OBJECT_NAME    = SL-8 R/B
OBJECT_ID      = 1985-006B
CENTER_NAME    = EARTH
REF_FRAME      = TEME
TIME_SYSTEM    = UTC
MEAN_ELEMENT_THEORY = SGP/SGP4

EPOCH          = 2026-02-24T15:19:44.196672
MEAN_MOTION    = 14.37775362
ECCENTRICITY   = .0018979
INCLINATION    = 74.0443
RA_OF_ASC_NODE = 285.1652
ARG_OF_PERICENTER = 205.6832
MEAN_ANOMALY   = 174.8653

EPHEMERIS_TYPE = 0
CLASSIFICATION_TYPE = U
NORAD_CAT_ID   = 15483
ELEMENT_SET_NO = 999
REV_AT_EPOCH   = 15215
BSTAR          = .52327E-4
MEAN_MOTION_DOT = .132E-5
MEAN_MOTION_DDOT = 0

CCSDS_OMM_VERS = 2.0
CREATION_DATE  = 
ORIGINATOR     = 

OBJECT_NAME    = SL-12 R/B(2)
OBJECT_ID      = 1985-042D
CENTER_NAME    = EARTH
REF_FRAME      = TEME
TIME_SYSTEM    = UTC
MEAN_ELEMENT_THEORY = SGP/SGP4

EPOCH          = 2026-02-24T13:08:46.120128
MEAN_MOTION    = 14.21978595
ECCENTRICITY   = .0033935
INCLINATION    = 71.1073
RA_OF_ASC_NODE = 115.4956
ARG_OF_PERICENTER = 149.5517
MEAN_ANOMALY   = 313.7977

EPHEMERIS_TYPE = 0
CLASSIFICATION_TYPE = U
NORAD_CAT_ID   = 15772
ELEMENT_SET_NO = 999
REV_AT_EPOCH   = 11252
BSTAR          = .29198E-4
MEAN_MOTION_DOT = .17E-6
MEAN_MOTION_DDOT = 0

CCSDS_OMM_VERS = 2.0
CREATION_DATE  = 
ORIGINATOR     = 

OBJECT_NAME    = SL-14 R/B
OBJECT_ID      = 1985-069B
CENTER_NAME    = EARTH
REF_FRAME      = TEME
TIME_SYSTEM    = UTC
MEAN_ELEMENT_THEORY = SGP/SGP4

EPOCH          = 2026-02-24T09:59:37.637376
MEAN_MOTION    = 14.86415437
ECCENTRICITY   = .00174404
INCLINATION    = 82.5258
RA_OF_ASC_NODE = 37.4146
ARG_OF_PERICENTER = 233.6285
MEAN_ANOMALY   = 126.3324

EPHEMERIS_TYPE = 0
CLASSIFICATION_TYPE = U
NORAD_CAT_ID   = 15945
ELEMENT_SET_NO = 999
REV_AT_EPOCH   = 17086
BSTAR          = .60956146E-4
MEAN_MOTION_DOT = .563E-5
MEAN_MOTION_DDOT = 0

CCSDS_OMM_VERS = 2.0
CREATION_DATE  = 
ORIGINATOR     = 

OBJECT_NAME    = SL-16 R/B
OBJECT_ID      = 1985-097B
CENTER_NAME    = EARTH
REF_FRAME      = TEME
TIME_SYSTEM    = UTC
MEAN_ELEMENT_THEORY = SGP/SGP4

EPOCH          = 2026-02-24T13:26:50.487648
MEAN_MOTION    = 14.16596795
ECCENTRICITY   = .0009757
INCLINATION    = 71.0036
RA_OF_ASC_NODE = 168.1929
ARG_OF_PERICENTER = 274.6906
MEAN_ANOMALY   = 96.0175

EPHEMERIS_TYPE = 0
CLASSIFICATION_TYPE = U
NORAD_CAT_ID   = 16182
ELEMENT_SET_NO = 999
REV_AT_EPOCH   = 8537
BSTAR          = .16185E-3
MEAN_MOTION_DOT = .275E-5
MEAN_MOTION_DDOT = 0

CCSDS_OMM_VERS = 2.0
CREATION_DATE  = 
ORIGINATOR     = 

OBJECT_NAME    = SL-14 R/B
OBJECT_ID      = 1986-006B
CENTER_NAME    = EARTH
REF_FRAME      = TEME
TIME_SYSTEM    = UTC
MEAN_ELEMENT_THEORY = SGP/SGP4

EPOCH          = 2026-02-24T14:22:20.005824
MEAN_MOTION    = 14.86795730
ECCENTRICITY   = .007554
INCLINATION    = 82.5240
RA_OF_ASC_NODE = 272.0608
ARG_OF_PERICENTER = 316.9993
MEAN_ANOMALY   = 42.5334

EPHEMERIS_TYPE = 0
CLASSIFICATION_TYPE = U
NORAD_CAT_ID   = 16496
ELEMENT_SET_NO = 999
REV_AT_EPOCH   = 14726
BSTAR          = .57866E-4
MEAN_MOTION_DOT = .568E-5
MEAN_MOTION_DDOT = 0

CCSDS_OMM_VERS = 2.0
CREATION_DATE  = 
ORIGINATOR     = 

OBJECT_NAME    = COSMOS 1743
OBJECT_ID      = 1986-034A
CENTER_NAME    = EARTH
REF_FRAME      = TEME
TIME_SYSTEM    = UTC
MEAN_ELEMENT_THEORY = SGP/SGP4

EPOCH          = 2026-02-24T19:07:29.026272
MEAN_MOTION    = 15.57534109
ECCENTRICITY   = .0003257
INCLINATION    = 82.5312
RA_OF_ASC_NODE = 87.3529
ARG_OF_PERICENTER = 3.2128
MEAN_ANOMALY   = 356.9147

EPHEMERIS_TYPE = 0
CLASSIFICATION_TYPE = U
NORAD_CAT_ID   = 16719
ELEMENT_SET_NO = 999
REV_AT_EPOCH   = 17824
BSTAR          = .44235E-3
MEAN_MOTION_DOT = .32672E-3
MEAN_MOTION_DDOT = 0

